KUIPER-00047            
1 64507U 25134H   26062.68920807  .00004621  00000+0  67587-3 0  9991
2 64507  51.8981 242.2679 0002614 121.7537 238.3679 14.77237824 39428
KUIPER-00048            
1 64508U 25134J   26062.90905764  .00001793  00000+0  26412-3 0  9991
2 64508  51.8976 241.1403 0000964 105.9857 254.1211 14.79937014 39463
KUIPER-00049            
1 64509U 25134K   26063.16670139 -.00007180  00000+0 -84351-3 0  9990
2 64509  51.8985 253.3580 0001535 117.9462 318.8764 14.83228725  3666
KUIPER-00050            
1 64510U 25134L   26062.68506170  .00000696  00000+0  81684-4 0  9991
2 64510  51.8907 239.2390 0005624 298.1180  61.9221 14.97217340 39474
KUIPER-00051            
1 64511U 25134M   26062.82890939  .00006385  00000+0  79143-3 0  9994
2 64511  51.9007 251.8494 0000767 104.2003 255.9046 14.83719371 39304
KUIPER-00053            
1 64513U 25134P   26062.90097124  .00004311  00000+0  59426-3 0  9999
2 64513  51.9003 248.6932 0000939 141.1607 218.9423 14.79919702 39352
KUIPER-00054            
1 64514U 25134Q   26062.90663188  .00005681  00000+0  77359-3 0  9995
2 64514  51.8972 243.6413 0000308 126.7436 233.3555 14.79930535 39427
KUIPER-00055            
1 64515U 25134R   26062.78924443  .00024780  00000+0  11365-2 0  9991
2 64515  51.8878 207.5635 0000461 330.3174  29.7780 15.20293604 39928
KUIPER-00056            
1 64516U 25134S   26062.88836409  .00006407  00000+0  79850-3 0  9997
2 64516  51.9015 248.9844 0000969  58.9775 301.1284 14.83485355 39354
KUIPER-00057            
1 64517U 25134T   26062.74862023  .00004778  00000+0  59945-3 0  9996
2 64517  51.8981 257.1047 0004034 251.8616 108.1909 14.83707603 39226
KUIPER-00058            
1 64518U 25134U   26062.83091181  .00005655  00000+0  77009-3 0  9992
2 64518  51.8999 251.4431 0000648 115.6857 244.4172 14.79940156 39314
KUIPER-00059            
1 64519U 25134V   26062.70109122  .00004830  00000+0  66255-3 0  9999
2 64519  51.8986 247.0670 0001362 136.2846 223.8224 14.79905121 39365
KUIPER-00060            
1 64520U 25134W   26062.82121237  .00006258  00000+0  77946-3 0  9990
2 64520  51.9013 246.7596 0001599  69.0970 291.0165 14.83548176 39364
KUIPER-00061            
1 64521U 25134X   26062.82799563  .00005140  00000+0  70281-3 0  9998
2 64521  51.8993 254.0094 0001360  94.8688 265.2430 14.79927283 39266
KUIPER-00062            
1 64522U 25134Y   26062.82529168  .00003528  00000+0  49152-3 0  9992
2 64522  51.8942 256.5569 0000673 159.7635 200.3354 14.79937846 39243
KUIPER-00063            
1 64523U 25134Z   26063.02108499  .00022099  00000+0  29511-2 0  9996
2 64523  51.9025 263.1769 0001008  86.0603 274.0474 14.79460931 39161
KUIPER-00064            
1 64524U 25134AA  26062.75241536  .00002009  00000+0  29250-3 0  9996
2 64524  51.9015 261.7752 0000726  72.2931 287.8111 14.79931979 39169
